[{"OBJECT_NAME":"STARLINK-32640","OBJECT_ID":"2024-229G","EPOCH":"2026-03-09T13:25:10.363872","MEAN_MOTION":15.27592769,"ECCENTRICITY":8.763e-5,"INCLINATION":42.9959,"RA_OF_ASC_NODE":271.2603,"ARG_OF_PERICENTER":169.5848,"MEAN_ANOMALY":190.5022,"EPHEMERIS_TYPE":0,"CLASSIFICATION_TYPE":"U","NORAD_CAT_ID":62198,"ELEMENT_SET_NO":999,"REV_AT_EPOCH":7054,"BSTAR":0.00094614882,"MEAN_MOTION_DOT":0.00025875,"MEAN_MOTION_DDOT":0},{"OBJECT_NAME":"PUCP-SAT 1","OBJECT_ID":"2013-066AC","EPOCH":"2026-03-09T22:02:13.763904","MEAN_MOTION":15.29426022,"ECCENTRICITY":0.00136836,"INCLINATION":97.5787,"RA_OF_ASC_NODE":61.0032,"ARG_OF_PERICENTER":300.1183,"MEAN_ANOMALY":59.87,"EPHEMERIS_TYPE":0,"CLASSIFICATION_TYPE":"U","NORAD_CAT_ID":39442,"ELEMENT_SET_NO":999,"REV_AT_EPOCH":66907,"BSTAR":0.00088755185,"MEAN_MOTION_DOT":0.00025373,"MEAN_MOTION_DDOT":0}]
